{"fetched_at":"2026-07-11T09:23:57.375Z","source":"https://celestrak.org/NORAD/elements/gp.php?GROUP=oneweb&FORMAT=JSON","constellation":"oneweb","records":[{"OBJECT_NAME":"ONEWEB-0588","OBJECT_ID":"2023-004P","EPOCH":"2026-07-09T15:26:43.110528","CLASSIFICATION_TYPE":"U","MEAN_MOTION":13.18686933,"ECCENTRICITY":0.00022303,"INCLINATION":87.9179,"RA_OF_ASC_NODE":331.0018,"ARG_OF_PERICENTER":86.8229,"MEAN_ANOMALY":273.3158,"EPHEMERIS_TYPE":0,"NORAD_CAT_ID":55153,"ELEMENT_SET_NO":999,"REV_AT_EPOCH":17265,"BSTAR":0.00013385095,"MEAN_MOTION_DOT":6.6e-7,"MEAN_MOTION_DDOT":0},{"OBJECT_NAME":"ONEWEB-0598","OBJECT_ID":"2023-004Q","EPOCH":"2026-07-10T23:09:24.210720","CLASSIFICATION_TYPE":"U","MEAN_MOTION":13.11416247,"ECCENTRICITY":0.0002431,"INCLINATION":87.888,"RA_OF_ASC_NODE":16.3332,"ARG_OF_PERICENTER":101.4059,"MEAN_ANOMALY":258.7342,"EPHEMERIS_TYPE":0,"NORAD_CAT_ID":55154,"ELEMENT_SET_NO":999,"REV_AT_EPOCH":16901,"BSTAR":0.0016944,"MEAN_MOTION_DOT":0.00000613,"MEAN_MOTION_DDOT":0},{"OBJECT_NAME":"ONEWEB-0599","OBJECT_ID":"2023-004R","EPOCH":"2026-07-10T22:40:30.378720","CLASSIFICATION_TYPE":"U","MEAN_MOTION":13.17650407,"ECCENTRICITY":0.0001802,"INCLINATION":87.9134,"RA_OF_ASC_NODE":1.137,"ARG_OF_PERICENTER":98.2412,"MEAN_ANOMALY":261.8924,"EPHEMERIS_TYPE":0,"NORAD_CAT_ID":55155,"ELEMENT_SET_NO":999,"REV_AT_EPOCH":17061,"BSTAR":0.00011711,"MEAN_MOTION_DOT":5.8e-7,"MEAN_MOTION_DDOT":0},{"OBJECT_NAME":"ONEWEB-0614","OBJECT_ID":"2023-004S","EPOCH":"2026-07-10T23:02:04.477056","CLASSIFICATION_TYPE":"U","MEAN_MOTION":13.1141713,"ECCENTRICITY":0.000181,"INCLINATION":87.8873,"RA_OF_ASC_NODE":16.3424,"ARG_OF_PERICENTER":82.8385,"MEAN_ANOMALY":277.2949,"EPHEMERIS_TYPE":0,"NORAD_CAT_ID":55156,"ELEMENT_SET_NO":999,"REV_AT_EPOCH":16895,"BSTAR":0.0014683,"MEAN_MOTION_DOT":0.00000533,"MEAN_MOTION_DDOT":0},{"OBJECT_NAME":"ONEWEB-0616","OBJECT_ID":"2023-004T","EPOCH":"2026-07-10T10:55:49.175328","CLASSIFICATION_TYPE":"U","MEAN_MOTION":13.176504,"ECCENTRICITY":0.00015306,"INCLINATION":87.9139,"RA_OF_ASC_NODE":1.2384,"ARG_OF_PERICENTER":122.0537,"MEAN_ANOMALY":238.0743,"EPHEMERIS_TYPE":0,"NORAD_CAT_ID":55157,"ELEMENT_SET_NO":999,"REV_AT_EPOCH":17076,"BSTAR":0.00013451098,"MEAN_MOTION_DOT":6.5e-7,"MEAN_MOTION_DDOT":0},{"OBJECT_NAME":"ONEWEB-0617","OBJECT_ID":"2023-004U","EPOCH":"2026-07-10T22:44:58.388928","CLASSIFICATION_TYPE":"U","MEAN_MOTION":13.11419388,"ECCENTRICITY":0.0002017,"INCLINATION":87.8885,"RA_OF_ASC_NODE":16.3376,"ARG_OF_PERICENTER":77.2518,"MEAN_ANOMALY":282.8836,"EPHEMERIS_TYPE":0,"NORAD_CAT_ID":55158,"ELEMENT_SET_NO":999,"REV_AT_EPOCH":16897,"BSTAR":0.00045819,"MEAN_MOTION_DOT":0.00000175,"MEAN_MOTION_DDOT":0},{"OBJECT_NAME":"ONEWEB-0618","OBJECT_ID":"2023-004V","EPOCH":"2026-07-09T16:11:37.006368","CLASSIFICATION_TYPE":"U","MEAN_MOTION":15.13343997,"ECCENTRICITY":0.00113451,"INCLINATION":86.9101,"RA_OF_ASC_NODE":168.5034,"ARG_OF_PERICENTER":195.9411,"MEAN_ANOMALY":164.1474,"EPHEMERIS_TYPE":0,"NORAD_CAT_ID":55159,"ELEMENT_SET_NO":999,"REV_AT_EPOCH":18566,"BSTAR":0.00018904315,"MEAN_MOTION_DOT":0.00003405,"MEAN_MOTION_DDOT":0},{"OBJECT_NAME":"ONEWEB-0619","OBJECT_ID":"2023-004W","EPOCH":"2026-07-09T12:00:27.992736","CLASSIFICATION_TYPE":"U","MEAN_MOTION":13.17650386,"ECCENTRICITY":0.00014752,"INCLINATION":87.9144,"RA_OF_ASC_NODE":1.411,"ARG_OF_PERICENTER":83.0001,"MEAN_ANOMALY":277.1298,"EPHEMERIS_TYPE":0,"NORAD_CAT_ID":55160,"ELEMENT_SET_NO":999,"REV_AT_EPOCH":17053,"BSTAR":-0.000080968228,"MEAN_MOTION_DOT":-1.9e-7,"MEAN_MOTION_DDOT":0},{"OBJECT_NAME":"ONEWEB-0620","OBJECT_ID":"2023-004X","EPOCH":"2026-07-10T22:37:38.720064","CLASSIFICATION_TYPE":"U","MEAN_MOTION":13.11418739,"ECCENTRICITY":0.0002112,"INCLINATION":87.8877,"RA_OF_ASC_NODE":16.3452,"ARG_OF_PERICENTER":90.6026,"MEAN_ANOMALY":269.5344,"EPHEMERIS_TYPE":0,"NORAD_CAT_ID":55161,"ELEMENT_SET_NO":999,"REV_AT_EPOCH":16894,"BSTAR":-0.00010126,"MEAN_MOTION_DOT":-2.3e-7,"MEAN_MOTION_DDOT":0},{"OBJECT_NAME":"ONEWEB-0621","OBJECT_ID":"2023-004Y","EPOCH":"2026-07-10T23:16:43.588416","CLASSIFICATION_TYPE":"U","MEAN_MOTION":13.11402157,"ECCENTRICITY":0.0001807,"INCLINATION":87.886,"RA_OF_ASC_NODE":16.3308,"ARG_OF_PERICENTER":81.1276,"MEAN_ANOMALY":279.0056,"EPHEMERIS_TYPE":0,"NORAD_CAT_ID":55162,"ELEMENT_SET_NO":999,"REV_AT_EPOCH":16892,"BSTAR":0.0085326,"MEAN_MOTION_DOT":0.00003037,"MEAN_MOTION_DDOT":0},{"OBJECT_NAME":"ONEWEB-0622","OBJECT_ID":"2023-004Z","EPOCH":"2026-07-09T23:35:46.189536","CLASSIFICATION_TYPE":"U","MEAN_MOTION":13.11414584,"ECCENTRICITY":0.00023292,"INCLINATION":87.8885,"RA_OF_ASC_NODE":16.5308,"ARG_OF_PERICENTER":74.6175,"MEAN_ANOMALY":285.521,"EPHEMERIS_TYPE":0,"NORAD_CAT_ID":55163,"ELEMENT_SET_NO":999,"REV_AT_EPOCH":16878,"BSTAR":0.00034659649,"MEAN_MOTION_DOT":0.00000136,"MEAN_MOTION_DDOT":0},{"OBJECT_NAME":"ONEWEB-0623","OBJECT_ID":"2023-004AA","EPOCH":"2026-07-10T09:45:20.847456","CLASSIFICATION_TYPE":"U","MEAN_MOTION":13.17648347,"ECCENTRICITY":0.00018338,"INCLINATION":87.9131,"RA_OF_ASC_NODE":1.2586,"ARG_OF_PERICENTER":66.2738,"MEAN_ANOMALY":293.8585,"EPHEMERIS_TYPE":0,"NORAD_CAT_ID":55164,"ELEMENT_SET_NO":999,"REV_AT_EPOCH":17064,"BSTAR":0.00023896406,"MEAN_MOTION_DOT":0.00000106,"MEAN_MOTION_DDOT":0},{"OBJECT_NAME":"ONEWEB-0624","OBJECT_ID":"2023-004AB","EPOCH":"2026-07-09T08:55:15.265344","CLASSIFICATION_TYPE":"U","MEAN_MOTION":13.12928257,"ECCENTRICITY":0.00017906,"INCLINATION":87.896,"RA_OF_ASC_NODE":346.1696,"ARG_OF_PERICENTER":90.8806,"MEAN_ANOMALY":269.2528,"EPHEMERIS_TYPE":0,"NORAD_CAT_ID":55165,"ELEMENT_SET_NO":999,"REV_AT_EPOCH":17098,"BSTAR":-0.00043835549,"MEAN_MOTION_DOT":-0.00000146,"MEAN_MOTION_DDOT":0},{"OBJECT_NAME":"ONEWEB-0625","OBJECT_ID":"2023-004AC","EPOCH":"2026-07-10T11:20:07.113984","CLASSIFICATION_TYPE":"U","MEAN_MOTION":13.17650416,"ECCENTRICITY":0.00017339,"INCLINATION":87.9136,"RA_OF_ASC_NODE":1.2416,"ARG_OF_PERICENTER":94.7188,"MEAN_ANOMALY":265.4141,"EPHEMERIS_TYPE":0,"NORAD_CAT_ID":55166,"ELEMENT_SET_NO":999,"REV_AT_EPOCH":17064,"BSTAR":0.000080501805,"MEAN_MOTION_DOT":4.4e-7,"MEAN_MOTION_DDOT":0},{"OBJECT_NAME":"ONEWEB-0626","OBJECT_ID":"2023-004AD","EPOCH":"2026-07-09T16:52:05.103840","CLASSIFICATION_TYPE":"U","MEAN_MOTION":13.17650516,"ECCENTRICITY":0.00020598,"INCLINATION":87.9131,"RA_OF_ASC_NODE":1.3945,"ARG_OF_PERICENTER":96.3665,"MEAN_ANOMALY":263.7702,"EPHEMERIS_TYPE":0,"NORAD_CAT_ID":55167,"ELEMENT_SET_NO":999,"REV_AT_EPOCH":17054,"BSTAR":0.000086127296,"MEAN_MOTION_DOT":4.6e-7,"MEAN_MOTION_DDOT":0},{"OBJECT_NAME":"ONEWEB-0627","OBJECT_ID":"2023-004AE","EPOCH":"2026-07-10T10:48:32.103648","CLASSIFICATION_TYPE":"U","MEAN_MOTION":13.17648052,"ECCENTRICITY":0.00018205,"INCLINATION":87.9137,"RA_OF_ASC_NODE":1.2458,"ARG_OF_PERICENTER":76.4817,"MEAN_ANOMALY":283.6517,"EPHEMERIS_TYPE":0,"NORAD_CAT_ID":55168,"ELEMENT_SET_NO":999,"REV_AT_EPOCH":17064,"BSTAR":0.00001531956,"MEAN_MOTION_DOT":1.9e-7,"MEAN_MOTION_DDOT":0}]}
