ONEWEB-0588             
1 55153U 23004P   26190.64355452  .00000066  00000+0  13385-3 0  9994
2 55153  87.9179 331.0018 0002230  86.8229 273.3158 13.18686933172658
ONEWEB-0598             
1 55154U 23004Q   26191.96486355  .00000613  00000+0  16944-2 0  9999
2 55154  87.8880  16.3332 0002431 101.4059 258.7342 13.11416247169017
ONEWEB-0599             
1 55155U 23004R   26191.94479605  .00000058  00000+0  11711-3 0  9999
2 55155  87.9134   1.1370 0001802  98.2412 261.8924 13.17650407170615
ONEWEB-0614             
1 55156U 23004S   26191.95977404  .00000533  00000+0  14683-2 0  9999
2 55156  87.8873  16.3424 0001810  82.8385 277.2949 13.11417130168950
ONEWEB-0616             
1 55157U 23004T   26191.45543027  .00000065  00000+0  13451-3 0  9998
2 55157  87.9139   1.2384 0001530 122.0537 238.0743 13.17650400170764
ONEWEB-0617             
1 55158U 23004U   26191.94789802  .00000175  00000+0  45819-3 0  9991
2 55158  87.8885  16.3376 0002017  77.2518 282.8836 13.11419388168973
ONEWEB-0618             
1 55159U 23004V   26190.67473387  .00003405  00000+0  18904-3 0  9993
2 55159  86.9101 168.5034 0011345 195.9411 164.1474 15.13343997185661
ONEWEB-0619             
1 55160U 23004W   26190.50032399 -.00000019  00000+0 -80968-4 0  9991
2 55160  87.9144   1.4110 0001475  83.0001 277.1298 13.17650386170530
ONEWEB-0620             
1 55161U 23004X   26191.94280926 -.00000023  00000+0 -10126-3 0  9995
2 55161  87.8877  16.3452 0002112  90.6026 269.5344 13.11418739168944
ONEWEB-0621             
1 55162U 23004Y   26191.96994894  .00003037  00000+0  85326-2 0  9993
2 55162  87.8860  16.3308 0001807  81.1276 279.0056 13.11402157168920
ONEWEB-0622             
1 55163U 23004Z   26190.98317349  .00000136  00000+0  34660-3 0  9992
2 55163  87.8885  16.5308 0002329  74.6175 285.5210 13.11414584168780
ONEWEB-0623             
1 55164U 23004AA  26191.40649129  .00000106  00000+0  23896-3 0  9991
2 55164  87.9131   1.2586 0001833  66.2738 293.8585 13.17648347170643
ONEWEB-0624             
1 55165U 23004AB  26190.37170446 -.00000146  00000+0 -43836-3 0  9990
2 55165  87.8960 346.1696 0001790  90.8806 269.2528 13.12928257170984
ONEWEB-0625             
1 55166U 23004AC  26191.47230456  .00000044  00000+0  80502-4 0  9998
2 55166  87.9136   1.2416 0001733  94.7188 265.4141 13.17650416170649
ONEWEB-0626             
1 55167U 23004AD  26190.70283685  .00000046  00000+0  86127-4 0  9997
2 55167  87.9131   1.3945 0002059  96.3665 263.7702 13.17650516170547
ONEWEB-0627             
1 55168U 23004AE  26191.45037157  .00000019  00000+0  15320-4 0  9999
2 55168  87.9137   1.2458 0001820  76.4817 283.6517 13.17648052170643
